{"type": "FeatureCollection", "features": [ {"type": "Feature", "properties": {"norad_id": 34833, "name": "IRIDIUM 33 DEB", "group": "iridium-33-debris", "lat": -86.36354215559078, "lon": -45.74775585840992, "alt_km": 740.6055369065389, "timestamp": "2025-12-12T05:47:29.156402+00:00", "meta": {"OBJECT_NAME": "IRIDIUM 33 DEB", "OBJECT_ID": "1997-051MH", "EPOCH": "2025-12-11T22:11:36.416256", "MEAN_MOTION": 14.5237094, "ECCENTRICITY": 0.00218401, "INCLINATION": 86.3926, "RA_OF_ASC_NODE": 51.3447, "ARG_OF_PERICENTER": 101.1213, "MEAN_ANOMALY": 314.1903, "EPHEMERIS_TYPE": 0, "CLASSIFICATION_TYPE": "U", "NORAD_CAT_ID": 34833, "ELEMENT_SET_NO": 999, "REV_AT_EPOCH": 87703, "BSTAR": 0.0012554918, "MEAN_MOTION_DOT": 5.146e-05, "MEAN_MOTION_DDOT": 0}, "tle": {"line1": "1 34833U 97051MH  25345.92472704  .00005146  00000+0  12555-2 0  9992", "line2": "2 34833  86.3926  51.3447 0021840 101.1213 314.1903 14.52370940877036"}}, "geometry": {"type": "Point", "coordinates": [-45.74775585840992, -86.36354215559078]}}, {"type": "Feature", "properties": {"norad_id": 34870, "name": "IRIDIUM 33 DEB", "group": "iridium-33-debris", "lat": -18.573228252404878, "lon": 135.55460869069896, "alt_km": 635.0236907039662, "timestamp": "2025-12-12T05:47:29.156413+00:00", "meta": {"OBJECT_NAME": "IRIDIUM 33 DEB", "OBJECT_ID": "1997-051MQ", "EPOCH": "2025-12-10T16:16:47.325792", "MEAN_MOTION": 14.76360658, "ECCENTRICITY": 0.00158788, "INCLINATION": 86.3108, "RA_OF_ASC_NODE": 315.0279, "ARG_OF_PERICENTER": 190.0668, "MEAN_ANOMALY": 346.5866, "EPHEMERIS_TYPE": 0, "CLASSIFICATION_TYPE": "U", "NORAD_CAT_ID": 34870, "ELEMENT_SET_NO": 999, "REV_AT_EPOCH": 88880, "BSTAR": 0.0023954817, "MEAN_MOTION_DOT": 0.00016709, "MEAN_MOTION_DDOT": 0}, "tle": {"line1": "1 34870U 97051MQ  25344.67832553  .00016709  00000+0  23955-2 0  9999", "line2": "2 34870  86.3108 315.0279 0015878 190.0668 346.5866 14.76360658888802"}}, "geometry": {"type": "Point", "coordinates": [135.55460869069896, -18.573228252404878]}}, {"type": "Feature", "properties": {"norad_id": 34896, "name": "IRIDIUM 33 DEB", "group": "iridium-33-debris", "lat": 57.448146979842015, "lon": -27.319165264994556, "alt_km": 683.4853211863765, "timestamp": "2025-12-12T05:47:29.156423+00:00", "meta": {"OBJECT_NAME": "IRIDIUM 33 DEB", "OBJECT_ID": "1997-051MY", "EPOCH": "2025-12-11T06:54:08.257248", "MEAN_MOTION": 14.66256347, "ECCENTRICITY": 0.00241983, "INCLINATION": 86.3294, "RA_OF_ASC_NODE": 327.3367, "ARG_OF_PERICENTER": 219.9786, "MEAN_ANOMALY": 206.8534, "EPHEMERIS_TYPE": 0, "CLASSIFICATION_TYPE": "U", "NORAD_CAT_ID": 34896, "ELEMENT_SET_NO": 999, "REV_AT_EPOCH": 87598, "BSTAR": 0.0017967326, "MEAN_MOTION_DOT": 9.969e-05, "MEAN_MOTION_DDOT": 0}, "tle": {"line1": "1 34896U 97051MY  25345.28759557  .00009969  00000+0  17967-2 0  9993", "line2": "2 34896  86.3294 327.3367 0024198 219.9786 206.8534 14.66256347875980"}}, "geometry": {"type": "Point", "coordinates": [-27.319165264994556, 57.448146979842015]}}, {"type": "Feature", "properties": {"norad_id": 34926, "name": "IRIDIUM 33 DEB", "group": "iridium-33-debris", "lat": 14.918416126114003, "lon": -172.52837867716343, "alt_km": 746.1922416055459, "timestamp": "2025-12-12T05:47:29.156434+00:00", "meta": {"OBJECT_NAME": "IRIDIUM 33 DEB", "OBJECT_ID": "1997-051NF", "EPOCH": "2025-12-11T19:22:10.619040", "MEAN_MOTION": 14.54346009, "ECCENTRICITY": 0.00754631, "INCLINATION": 86.1327, "RA_OF_ASC_NODE": 8.7055, "ARG_OF_PERICENTER": 295.9766, "MEAN_ANOMALY": 117.5242, "EPHEMERIS_TYPE": 0, "CLASSIFICATION_TYPE": "U", "NORAD_CAT_ID": 34926, "ELEMENT_SET_NO": 999, "REV_AT_EPOCH": 86443, "BSTAR": 0.0073698942, "MEAN_MOTION_DOT": 0.00032638, "MEAN_MOTION_DDOT": 0}, "tle": {"line1": "1 34926U 97051NF  25345.80706735  .00032638  00000+0  73699-2 0  9998", "line2": "2 34926  86.1327   8.7055 0075463 295.9766 117.5242 14.54346009864430"}}, "geometry": {"type": "Point", "coordinates": [-172.52837867716343, 14.918416126114003]}}, {"type": "Feature", "properties": {"norad_id": 34985, "name": "IRIDIUM 33 DEB", "group": "iridium-33-debris", "lat": -46.896892576993636, "lon": 53.20212428492891, "alt_km": 759.1066881511342, "timestamp": "2025-12-12T05:47:29.156444+00:00", "meta": {"OBJECT_NAME": "IRIDIUM 33 DEB", "OBJECT_ID": "1997-051NR", "EPOCH": "2025-12-11T11:45:25.383168", "MEAN_MOTION": 14.42002723, "ECCENTRICITY": 0.00206039, "INCLINATION": 86.3696, "RA_OF_ASC_NODE": 57.4124, "ARG_OF_PERICENTER": 224.0438, "MEAN_ANOMALY": 150.4182, "EPHEMERIS_TYPE": 0, "CLASSIFICATION_TYPE": "U", "NORAD_CAT_ID": 34985, "ELEMENT_SET_NO": 999, "REV_AT_EPOCH": 87157, "BSTAR": 0.0012198986, "MEAN_MOTION_DOT": 4.029e-05, "MEAN_MOTION_DDOT": 0}, "tle": {"line1": "1 34985U 97051NR  25345.48987712  .00004029  00000+0  12199-2 0  9994", "line2": "2 34985  86.3696  57.4124 0020603 224.0438 150.4182 14.42002723871570"}}, "geometry": {"type": "Point", "coordinates": [53.20212428492891, -46.896892576993636]}}, {"type": "Feature", "properties": {"norad_id": 35051, "name": "IRIDIUM 33 DEB", "group": "iridium-33-debris", "lat": -55.53473114850387, "lon": -165.5469122476738, "alt_km": 746.7528326221372, "timestamp": "2025-12-12T05:47:29.156454+00:00", "meta": {"OBJECT_NAME": "IRIDIUM 33 DEB", "OBJECT_ID": "1997-051NX", "EPOCH": "2025-12-11T08:47:57.045408", "MEAN_MOTION": 14.47588957, "ECCENTRICITY": 0.00106566, "INCLINATION": 86.3243, "RA_OF_ASC_NODE": 9.4603, "ARG_OF_PERICENTER": 94.8899, "MEAN_ANOMALY": 265.3522, "EPHEMERIS_TYPE": 0, "CLASSIFICATION_TYPE": "U", "NORAD_CAT_ID": 35051, "ELEMENT_SET_NO": 999, "REV_AT_EPOCH": 86976, "BSTAR": 0.001042299, "MEAN_MOTION_DOT": 3.858e-05, "MEAN_MOTION_DDOT": 0}, "tle": {"line1": "1 35051U 97051NX  25345.36663247  .00003858  00000+0  10423-2 0  9997", "line2": "2 35051  86.3243   9.4603 0010656  94.8899 265.3522 14.47588957869768"}}, "geometry": {"type": "Point", "coordinates": [-165.5469122476738, -55.53473114850387]}}, {"type": "Feature", "properties": {"norad_id": 35052, "name": "IRIDIUM 33 DEB", "group": "iridium-33-debris", "lat": 40.737986517701, "lon": 23.858133341363303, "alt_km": 753.4572974762305, "timestamp": "2025-12-12T05:47:29.156464+00:00", "meta": {"OBJECT_NAME": "IRIDIUM 33 DEB", "OBJECT_ID": "1997-051NY", "EPOCH": "2025-12-11T12:54:27.641952", "MEAN_MOTION": 14.38490165, "ECCENTRICITY": 0.00136793, "INCLINATION": 86.3312, "RA_OF_ASC_NODE": 20.9917, "ARG_OF_PERICENTER": 88.4217, "MEAN_ANOMALY": 271.8548, "EPHEMERIS_TYPE": 0, "CLASSIFICATION_TYPE": "U", "NORAD_CAT_ID": 35052, "ELEMENT_SET_NO": 999, "REV_AT_EPOCH": 87258, "BSTAR": 0.00027419057, "MEAN_MOTION_DOT": 8.58e-06, "MEAN_MOTION_DDOT": 0}, "tle": {"line1": "1 35052U 97051NY  25345.53781993  .00000858  00000+0  27419-3 0  9997", "line2": "2 35052  86.3312  20.9917 0013679  88.4217 271.8548 14.38490165872580"}}, "geometry": {"type": "Point", "coordinates": [23.858133341363303, 40.737986517701]}}, {"type": "Feature", "properties": {"norad_id": 35080, "name": "IRIDIUM 33 DEB", "group": "iridium-33-debris", "lat": 49.62597739412993, "lon": -131.86089118744005, "alt_km": 579.5207125408251, "timestamp": "2025-12-12T05:47:29.156475+00:00", "meta": {"OBJECT_NAME": "IRIDIUM 33 DEB", "OBJECT_ID": "1997-051PF", "EPOCH": "2025-12-11T14:39:31.999392", "MEAN_MOTION": 14.85859571, "ECCENTRICITY": 0.00606666, "INCLINATION": 86.2068, "RA_OF_ASC_NODE": 52.9156, "ARG_OF_PERICENTER": 183.679, "MEAN_ANOMALY": 176.3998, "EPHEMERIS_TYPE": 0, "CLASSIFICATION_TYPE": "U", "NORAD_CAT_ID": 35080, "ELEMENT_SET_NO": 999, "REV_AT_EPOCH": 69671, "BSTAR": 0.0092622629, "MEAN_MOTION_DOT": 0.00084254, "MEAN_MOTION_DDOT": 0}, "tle": {"line1": "1 35080U 97051PF  25345.61078703  .00084254  00000+0  92623-2 0  9995", "line2": "2 35080  86.2068  52.9156 0060666 183.6790 176.3998 14.85859571696719"}}, "geometry": {"type": "Point", "coordinates": [-131.86089118744005, 49.62597739412993]}}, {"type": "Feature", "properties": {"norad_id": 35297, "name": "IRIDIUM 33 DEB", "group": "iridium-33-debris", "lat": -63.64113336894424, "lon": 55.64709336600489, "alt_km": 759.8230901698671, "timestamp": "2025-12-12T05:47:29.156486+00:00", "meta": {"OBJECT_NAME": "IRIDIUM 33 DEB", "OBJECT_ID": "1997-051PM", "EPOCH": "2025-12-06T00:31:29.302752", "MEAN_MOTION": 14.45108459, "ECCENTRICITY": 0.00170329, "INCLINATION": 86.3867, "RA_OF_ASC_NODE": 65.6268, "ARG_OF_PERICENTER": 161.2449, "MEAN_ANOMALY": 198.9384, "EPHEMERIS_TYPE": 0, "CLASSIFICATION_TYPE": "U", "NORAD_CAT_ID": 35297, "ELEMENT_SET_NO": 999, "REV_AT_EPOCH": 70329, "BSTAR": 0.0012426888, "MEAN_MOTION_DOT": 4.371e-05, "MEAN_MOTION_DDOT": 0}, "tle": {"line1": "1 35297U 97051PM  25340.02186693  .00004371  00000+0  12427-2 0  9999", "line2": "2 35297  86.3867  65.6268 0017032 161.2449 198.9384 14.45108459703293"}}, "geometry": {"type": "Point", "coordinates": [55.64709336600489, -63.64113336894424]}}, {"type": "Feature", "properties": {"norad_id": 35299, "name": "IRIDIUM 33 DEB", "group": "iridium-33-debris", "lat": -56.927723437896816, "lon": -140.87603444418312, "alt_km": 791.4607478839453, "timestamp": "2025-12-12T05:47:29.156497+00:00", "meta": {"OBJECT_NAME": "IRIDIUM 33 DEB", "OBJECT_ID": "1997-051PP", "EPOCH": "2025-12-11T14:23:51.968256", "MEAN_MOTION": 14.40851716, "ECCENTRICITY": 0.00589419, "INCLINATION": 86.2884, "RA_OF_ASC_NODE": 33.6823, "ARG_OF_PERICENTER": 106.0138, "MEAN_ANOMALY": 45.6441, "EPHEMERIS_TYPE": 0, "CLASSIFICATION_TYPE": "U", "NORAD_CAT_ID": 35299, "ELEMENT_SET_NO": 999, "REV_AT_EPOCH": 86314, "BSTAR": 0.0011895321, "MEAN_MOTION_DOT": 3.91e-05, "MEAN_MOTION_DDOT": 0}, "tle": {"line1": "1 35299U 97051PP  25345.59990704  .00003910  00000+0  11895-2 0  9990", "line2": "2 35299  86.2884  33.6823 0058941 106.0138  45.6441 14.40851716863140"}}, "geometry": {"type": "Point", "coordinates": [-140.87603444418312, -56.927723437896816]}}]}